STARLINK-1760_new
1 16341C 20062T   21326.13141802  .00008606  00000-0  57677-3 0  3261
2 16341  53.0501 198.1589 0001926  75.4569 129.9833 15.06379279    14
STARLINK-1760_old
1 26341C 20062T   21325.13785929 -.00017212  00000-0 -11533-2 0  3258
2 26341  53.0507 202.6193 0001943  74.2558 140.1045 15.06412521    14
